[{"OBJECT_NAME":"TIANPING-3A 02","OBJECT_ID":"2025-068A","EPOCH":"2026-03-09T20:54:34.712640","MEAN_MOTION":14.85842181,"ECCENTRICITY":0.02320093,"INCLINATION":43.0011,"RA_OF_ASC_NODE":213.5906,"ARG_OF_PERICENTER":358.6421,"MEAN_ANOMALY":1.3764,"EPHEMERIS_TYPE":0,"CLASSIFICATION_TYPE":"U","NORAD_CAT_ID":63432,"ELEMENT_SET_NO":999,"REV_AT_EPOCH":5060,"BSTAR":0.00038259976,"MEAN_MOTION_DOT":5.293e-5,"MEAN_MOTION_DDOT":0},{"OBJECT_NAME":"STARLINK-34192","OBJECT_ID":"2025-101W","EPOCH":"2026-03-09T04:25:18.717888","MEAN_MOTION":15.27565149,"ECCENTRICITY":8.821e-5,"INCLINATION":42.9995,"RA_OF_ASC_NODE":1.1861,"ARG_OF_PERICENTER":275.0953,"MEAN_ANOMALY":84.9798,"EPHEMERIS_TYPE":0,"CLASSIFICATION_TYPE":"U","NORAD_CAT_ID":64014,"ELEMENT_SET_NO":999,"REV_AT_EPOCH":4697,"BSTAR":0.00091102305,"MEAN_MOTION_DOT":0.0002488,"MEAN_MOTION_DDOT":0}]
